{"type": "FeatureCollection", "features": [ {"type": "Feature", "properties": {"norad_id": 31934, "name": "FENGYUN 1C DEB", "group": "fengyun-1c-debris", "lat": -7.342245213860649, "lon": 53.55101120210009, "alt_km": 569.3811998085112, "timestamp": "2025-12-26T21:25:53.295356+00:00", "meta": {"OBJECT_NAME": "FENGYUN 1C DEB", "OBJECT_ID": "1999-025CMK", "EPOCH": "2025-12-26T08:43:39.067968", "MEAN_MOTION": 15.08306736, "ECCENTRICITY": 0.00362197, "INCLINATION": 98.8798, "RA_OF_ASC_NODE": 51.7855, "ARG_OF_PERICENTER": 188.8739, "MEAN_ANOMALY": 171.1849, "EPHEMERIS_TYPE": 0, "CLASSIFICATION_TYPE": "U", "NORAD_CAT_ID": 31934, "ELEMENT_SET_NO": 999, "REV_AT_EPOCH": 61048, "BSTAR": 0.0035355006, "MEAN_MOTION_DOT": 0.00055999, "MEAN_MOTION_DDOT": 0}, "tle": {"line1": "1 31934U 99025CMK 25360.36364662  .00055999  00000+0  35355-2 0  9996", "line2": "2 31934  98.8798  51.7855 0036219 188.8739 171.1849 15.08306736610486"}}, "geometry": {"type": "Point", "coordinates": [53.55101120210009, -7.342245213860649]}}, {"type": "Feature", "properties": {"norad_id": 31937, "name": "FENGYUN 1C DEB", "group": "fengyun-1c-debris", "lat": -9.981833197808019, "lon": 94.23024741939848, "alt_km": 649.4736846553515, "timestamp": "2025-12-26T21:25:53.295367+00:00", "meta": {"OBJECT_NAME": "FENGYUN 1C DEB", "OBJECT_ID": "1999-025CMN", "EPOCH": "2025-12-06T23:52:27.149088", "MEAN_MOTION": 14.78022374, "ECCENTRICITY": 0.0162921, "INCLINATION": 99.2561, "RA_OF_ASC_NODE": 69.7316, "ARG_OF_PERICENTER": 315.3928, "MEAN_ANOMALY": 43.4262, "EPHEMERIS_TYPE": 0, "CLASSIFICATION_TYPE": "U", "NORAD_CAT_ID": 31937, "ELEMENT_SET_NO": 999, "REV_AT_EPOCH": 65984, "BSTAR": 0.0011794166, "MEAN_MOTION_DOT": 0.00010567, "MEAN_MOTION_DDOT": 0}, "tle": {"line1": "1 31937U 99025CMN 25340.99475867  .00010567  00000+0  11794-2 0  9999", "line2": "2 31937  99.2561  69.7316 0162921 315.3928  43.4262 14.78022374659842"}}, "geometry": {"type": "Point", "coordinates": [94.23024741939848, -9.981833197808019]}}, {"type": "Feature", "properties": {"norad_id": 31938, "name": "FENGYUN 1C DEB", "group": "fengyun-1c-debris", "lat": 71.06287597699281, "lon": -118.43936287980415, "alt_km": 564.171637581655, "timestamp": "2025-12-26T21:25:53.295377+00:00", "meta": {"OBJECT_NAME": "FENGYUN 1C DEB", "OBJECT_ID": "1999-025CMP", "EPOCH": "2025-12-25T01:37:07.523616", "MEAN_MOTION": 14.95750647, "ECCENTRICITY": 0.01522723, "INCLINATION": 98.9279, "RA_OF_ASC_NODE": 32.2117, "ARG_OF_PERICENTER": 26.5882, "MEAN_ANOMALY": 334.3043, "EPHEMERIS_TYPE": 0, "CLASSIFICATION_TYPE": "U", "NORAD_CAT_ID": 31938, "ELEMENT_SET_NO": 999, "REV_AT_EPOCH": 99320, "BSTAR": 0.00040829597, "MEAN_MOTION_DOT": 5.665e-05, "MEAN_MOTION_DDOT": 0}, "tle": {"line1": "1 31938U 99025CMP 25359.06744819  .00005665  00000+0  40830-3 0  9991", "line2": "2 31938  98.9279  32.2117 0152272  26.5882 334.3043 14.95750647993207"}}, "geometry": {"type": "Point", "coordinates": [-118.43936287980415, 71.06287597699281]}}, {"type": "Feature", "properties": {"norad_id": 31944, "name": "FENGYUN 1C DEB", "group": "fengyun-1c-debris", "lat": 25.956392478008276, "lon": 144.2394594535362, "alt_km": 798.8688347586767, "timestamp": "2025-12-26T21:25:53.295387+00:00", "meta": {"OBJECT_NAME": "FENGYUN 1C DEB", "OBJECT_ID": "1999-025CMV", "EPOCH": "2025-12-12T04:22:40.814976", "MEAN_MOTION": 14.11787529, "ECCENTRICITY": 0.0151811, "INCLINATION": 99.2035, "RA_OF_ASC_NODE": 133.6743, "ARG_OF_PERICENTER": 5.8705, "MEAN_ANOMALY": 173.5719, "EPHEMERIS_TYPE": 0, "CLASSIFICATION_TYPE": "U", "NORAD_CAT_ID": 31944, "ELEMENT_SET_NO": 999, "REV_AT_EPOCH": 62902, "BSTAR": 0.0007470391, "MEAN_MOTION_DOT": 1.471e-05, "MEAN_MOTION_DDOT": 0}, "tle": {"line1": "1 31944U 99025CMV 25346.18241684  .00001471  00000+0  74704-3 0  9997", "line2": "2 31944  99.2035 133.6743 0151811   5.8705 173.5719 14.11787529629027"}}, "geometry": {"type": "Point", "coordinates": [144.2394594535362, 25.956392478008276]}}, {"type": "Feature", "properties": {"norad_id": 31945, "name": "FENGYUN 1C DEB", "group": "fengyun-1c-debris", "lat": 67.19554609440029, "lon": -80.53374941322228, "alt_km": 847.5542384704659, "timestamp": "2025-12-26T21:25:53.295397+00:00", "meta": {"OBJECT_NAME": "FENGYUN 1C DEB", "OBJECT_ID": "1999-025CMW", "EPOCH": "2025-12-26T04:00:18.285120", "MEAN_MOTION": 14.2088549, "ECCENTRICITY": 0.00621149, "INCLINATION": 98.9597, "RA_OF_ASC_NODE": 76.6921, "ARG_OF_PERICENTER": 248.6422, "MEAN_ANOMALY": 110.8117, "EPHEMERIS_TYPE": 0, "CLASSIFICATION_TYPE": "U", "NORAD_CAT_ID": 31945, "ELEMENT_SET_NO": 999, "REV_AT_EPOCH": 95386, "BSTAR": 0.001499081, "MEAN_MOTION_DOT": 3.261e-05, "MEAN_MOTION_DDOT": 0}, "tle": {"line1": "1 31945U 99025CMW 25360.16687830  .00003261  00000+0  14991-2 0  9999", "line2": "2 31945  98.9597  76.6921 0062114 248.6422 110.8117 14.20885490953865"}}, "geometry": {"type": "Point", "coordinates": [-80.53374941322228, 67.19554609440029]}}, {"type": "Feature", "properties": {"norad_id": 31946, "name": "FENGYUN 1C DEB", "group": "fengyun-1c-debris", "lat": 54.69704032156038, "lon": -106.10832113754564, "alt_km": 856.8590911206666, "timestamp": "2025-12-26T21:25:53.295408+00:00", "meta": {"OBJECT_NAME": "FENGYUN 1C DEB", "OBJECT_ID": "1999-025CMX", "EPOCH": "2025-12-23T21:39:03.195648", "MEAN_MOTION": 14.16487077, "ECCENTRICITY": 0.0081473, "INCLINATION": 98.8969, "RA_OF_ASC_NODE": 58.1228, "ARG_OF_PERICENTER": 17.293, "MEAN_ANOMALY": 343.099, "EPHEMERIS_TYPE": 0, "CLASSIFICATION_TYPE": "U", "NORAD_CAT_ID": 31946, "ELEMENT_SET_NO": 999, "REV_AT_EPOCH": 64166, "BSTAR": 0.0012861, "MEAN_MOTION_DOT": 2.6e-05, "MEAN_MOTION_DDOT": 0}, "tle": {"line1": "1 31946U 99025CMX 25357.90212032  .00002600  00000+0  12861-2 0  9996", "line2": "2 31946  98.8969  58.1228 0081473  17.2930 343.0990 14.16487077641661"}}, "geometry": {"type": "Point", "coordinates": [-106.10832113754564, 54.69704032156038]}}, {"type": "Feature", "properties": {"norad_id": 31948, "name": "FENGYUN 1C DEB", "group": "fengyun-1c-debris", "lat": 30.308813530352722, "lon": 56.83510206115858, "alt_km": 784.5406676988741, "timestamp": "2025-12-26T21:25:53.295418+00:00", "meta": {"OBJECT_NAME": "FENGYUN 1C DEB", "OBJECT_ID": "1999-025CMZ", "EPOCH": "2025-12-18T10:10:15.056832", "MEAN_MOTION": 14.28329763, "ECCENTRICITY": 0.00234205, "INCLINATION": 99.3923, "RA_OF_ASC_NODE": 53.282, "ARG_OF_PERICENTER": 5.6805, "MEAN_ANOMALY": 59.9549, "EPHEMERIS_TYPE": 0, "CLASSIFICATION_TYPE": "U", "NORAD_CAT_ID": 31948, "ELEMENT_SET_NO": 999, "REV_AT_EPOCH": 95109, "BSTAR": 0.0011732562, "MEAN_MOTION_DOT": 2.889e-05, "MEAN_MOTION_DDOT": 0}, "tle": {"line1": "1 31948U 99025CMZ 25352.42378538  .00002889  00000+0  11733-2 0  9990", "line2": "2 31948  99.3923  53.2820 0023420   5.6805  59.9549 14.28329763951097"}}, "geometry": {"type": "Point", "coordinates": [56.83510206115858, 30.308813530352722]}}, {"type": "Feature", "properties": {"norad_id": 31949, "name": "FENGYUN 1C DEB", "group": "fengyun-1c-debris", "lat": -9.986406901871865, "lon": -12.626572366417264, "alt_km": 930.8901483325571, "timestamp": "2025-12-26T21:25:53.295428+00:00", "meta": {"OBJECT_NAME": "FENGYUN 1C DEB", "OBJECT_ID": "1999-025CNA", "EPOCH": "2025-12-23T05:21:04.784256", "MEAN_MOTION": 14.16925991, "ECCENTRICITY": 0.01261914, "INCLINATION": 98.5469, "RA_OF_ASC_NODE": 342.3284, "ARG_OF_PERICENTER": 182.1147, "MEAN_ANOMALY": 177.951, "EPHEMERIS_TYPE": 0, "CLASSIFICATION_TYPE": "U", "NORAD_CAT_ID": 31949, "ELEMENT_SET_NO": 999, "REV_AT_EPOCH": 95653, "BSTAR": 0.00025831817, "MEAN_MOTION_DOT": 5.19e-06, "MEAN_MOTION_DDOT": 0}, "tle": {"line1": "1 31949U 99025CNA 25357.22297204  .00000519  00000+0  25832-3 0  9998", "line2": "2 31949  98.5469 342.3284 0126191 182.1147 177.9510 14.16925991956534"}}, "geometry": {"type": "Point", "coordinates": [-12.626572366417264, -9.986406901871865]}}, {"type": "Feature", "properties": {"norad_id": 31952, "name": "FENGYUN 1C DEB", "group": "fengyun-1c-debris", "lat": -30.017795719919498, "lon": -66.26485697840802, "alt_km": 656.8194763771617, "timestamp": "2025-12-26T21:25:53.295438+00:00", "meta": {"OBJECT_NAME": "FENGYUN 1C DEB", "OBJECT_ID": "1999-025CND", "EPOCH": "2025-12-26T13:50:56.872032", "MEAN_MOTION": 14.53558379, "ECCENTRICITY": 0.01140725, "INCLINATION": 98.9559, "RA_OF_ASC_NODE": 118.6252, "ARG_OF_PERICENTER": 250.3882, "MEAN_ANOMALY": 108.497, "EPHEMERIS_TYPE": 0, "CLASSIFICATION_TYPE": "U", "NORAD_CAT_ID": 31952, "ELEMENT_SET_NO": 999, "REV_AT_EPOCH": 97410, "BSTAR": 0.00062734688, "MEAN_MOTION_DOT": 2.797e-05, "MEAN_MOTION_DDOT": 0}, "tle": {"line1": "1 31952U 99025CND 25360.57704713  .00002797  00000+0  62735-3 0  9995", "line2": "2 31952  98.9559 118.6252 0114072 250.3882 108.4970 14.53558379974105"}}, "geometry": {"type": "Point", "coordinates": [-66.26485697840802, -30.017795719919498]}}, {"type": "Feature", "properties": {"norad_id": 31955, "name": "FENGYUN 1C DEB", "group": "fengyun-1c-debris", "lat": 64.04353322167805, "lon": -140.1446568918659, "alt_km": 663.6826121786689, "timestamp": "2025-12-26T21:25:53.295448+00:00", "meta": {"OBJECT_NAME": "FENGYUN 1C DEB", "OBJECT_ID": "1999-025CNG", "EPOCH": "2025-12-26T14:42:52.984800", "MEAN_MOTION": 14.64112179, "ECCENTRICITY": 0.00438024, "INCLINATION": 99.2803, "RA_OF_ASC_NODE": 239.1674, "ARG_OF_PERICENTER": 138.0338, "MEAN_ANOMALY": 253.8761, "EPHEMERIS_TYPE": 0, "CLASSIFICATION_TYPE": "U", "NORAD_CAT_ID": 31955, "ELEMENT_SET_NO": 999, "REV_AT_EPOCH": 96760, "BSTAR": 0.0015887364, "MEAN_MOTION_DOT": 8.412e-05, "MEAN_MOTION_DDOT": 0}, "tle": {"line1": "1 31955U 99025CNG 25360.61311325  .00008412  00000+0  15887-2 0  9991", "line2": "2 31955  99.2803 239.1674 0043802 138.0338 253.8761 14.64112179967607"}}, "geometry": {"type": "Point", "coordinates": [-140.1446568918659, 64.04353322167805]}}]}